[{"OBJECT_NAME":"STARLINK-5908","OBJECT_ID":"2023-037AP","EPOCH":"2026-03-09T22:47:23.418240","MEAN_MOTION":14.98333189,"ECCENTRICITY":0.00028195,"INCLINATION":69.9985,"RA_OF_ASC_NODE":283.6163,"ARG_OF_PERICENTER":270.8279,"MEAN_ANOMALY":89.2557,"EPHEMERIS_TYPE":0,"CLASSIFICATION_TYPE":"U","NORAD_CAT_ID":55951,"ELEMENT_SET_NO":999,"REV_AT_EPOCH":16402,"BSTAR":-4.797258e-6,"MEAN_MOTION_DOT":-1.5e-6,"MEAN_MOTION_DDOT":0},{"OBJECT_NAME":"SATELIOT_4","OBJECT_ID":"2024-149BX","EPOCH":"2026-03-09T17:48:54.333792","MEAN_MOTION":14.96254023,"ECCENTRICITY":0.00023903,"INCLINATION":97.6789,"RA_OF_ASC_NODE":145.1106,"ARG_OF_PERICENTER":45.2073,"MEAN_ANOMALY":314.9342,"EPHEMERIS_TYPE":0,"CLASSIFICATION_TYPE":"U","NORAD_CAT_ID":60537,"ELEMENT_SET_NO":999,"REV_AT_EPOCH":8510,"BSTAR":0.00026256084,"MEAN_MOTION_DOT":2.907e-5,"MEAN_MOTION_DDOT":0}]
